LYNK TOWER 4            
1 55034U 23001AB  26068.67743801  .00009160  00000+0  30014-3 0  9997
2 55034  97.3324 128.5940 0010321 112.3386 247.8950 15.31819885176588
STARLINK-32593          
1 61974U 24210R   26068.28724928  .00038891  00000+0  14146-2 0  9996
2 61974  43.0026 182.5093 0002841 295.6911  64.3648 15.27595378 74813
